{
  "type": "FeatureCollection",
  "features": [
    {
      "type": "Feature",
      "properties": {
        "norad_id": 66568,
        "name": "STARLINK-35803",
        "group": "last-30-days",
        "lat": 25.76777561657082,
        "lon": 70.58390781157028,
        "alt_km": 422.2467051406302,
        "timestamp": "2025-12-26T16:33:54.328401+00:00",
        "meta_object_name": "STARLINK-35803",
        "meta_object_id": "2025-268M",
        "meta_epoch": "2025-12-26T06:00:02.999808",
        "meta_mean_motion": 15.48595361,
        "meta_eccentricity": 0.00013526,
        "meta_inclination": 43.0002,
        "meta_ra_of_asc_node": 41.9483,
        "meta_arg_of_pericenter": 281.6557,
        "meta_mean_anomaly": 182.456,
        "meta_ephemeris_type": 0,
        "meta_classification_type": "U",
        "meta_norad_cat_id": 66568,
        "meta_element_set_no": 999,
        "meta_rev_at_epoch": 606,
        "meta_bstar": -0.035980189,
        "meta_mean_motion_dot": -0.01750505,
        "meta_mean_motion_ddot": 0,
        "tle_line1": "1 66568U 25268M   25360.25003472 -.01750505  00000+0 -35980-1 0  9993",
        "tle_line2": "2 66568  43.0002  41.9483 0001352 281.6557 182.4560 15.48595361  6061"
      },
      "geometry": {
        "type": "Point",
        "coordinates": [
          70.58390781157028,
          25.76777561657082
        ]
      }
    },
    {
      "type": "Feature",
      "properties": {
        "norad_id": 66569,
        "name": "STARLINK-35835",
        "group": "last-30-days",
        "lat": 39.90064625573497,
        "lon": 103.11496321391725,
        "alt_km": 420.6407566907774,
        "timestamp": "2025-12-26T16:33:54.328411+00:00",
        "meta_object_name": "STARLINK-35835",
        "meta_object_id": "2025-268N",
        "meta_epoch": "2025-12-26T06:00:02.999808",
        "meta_mean_motion": 15.48808019,
        "meta_eccentricity": 0.00011502,
        "meta_inclination": 43.0001,
        "meta_ra_of_asc_node": 41.8745,
        "meta_arg_of_pericenter": 279.2989,
        "meta_mean_anomaly": 215.2761,
        "meta_ephemeris_type": 0,
        "meta_classification_type": "U",
        "meta_norad_cat_id": 66569,
        "meta_element_set_no": 999,
        "meta_rev_at_epoch": 606,
        "meta_bstar": -0.042282579,
        "meta_mean_motion_dot": -0.02071104,
        "meta_mean_motion_ddot": 0,
        "tle_line1": "1 66569U 25268N   25360.25003472 -.02071104  00000+0 -42283-1 0  9990",
        "tle_line2": "2 66569  43.0001  41.8745 0001150 279.2989 215.2761 15.48808019  6064"
      },
      "geometry": {
        "type": "Point",
        "coordinates": [
          103.11496321391725,
          39.90064625573497
        ]
      }
    },
    {
      "type": "Feature",
      "properties": {
        "norad_id": 66570,
        "name": "STARLINK-35834",
        "group": "last-30-days",
        "lat": -33.017091377835406,
        "lon": -95.99686584533175,
        "alt_km": 471.4209293071299,
        "timestamp": "2025-12-26T16:33:54.328420+00:00",
        "meta_object_name": "STARLINK-35834",
        "meta_object_id": "2025-268P",
        "meta_epoch": "2025-12-26T06:00:02.999808",
        "meta_mean_motion": 15.34102426,
        "meta_eccentricity": 0.00012745,
        "meta_inclination": 43.0012,
        "meta_ra_of_asc_node": 42.2987,
        "meta_arg_of_pericenter": 257.4002,
        "meta_mean_anomaly": 63.2908,
        "meta_ephemeris_type": 0,
        "meta_classification_type": "U",
        "meta_norad_cat_id": 66570,
        "meta_element_set_no": 999,
        "meta_rev_at_epoch": 606,
        "meta_bstar": -0.067216545,
        "meta_mean_motion_dot": -0.02046558,
        "meta_mean_motion_ddot": 0,
        "tle_line1": "1 66570U 25268P   25360.25003472 -.02046558  00000+0 -67217-1 0  9991",
        "tle_line2": "2 66570  43.0012  42.2987 0001274 257.4002  63.2908 15.34102426  6060"
      },
      "geometry": {
        "type": "Point",
        "coordinates": [
          -95.99686584533175,
          -33.017091377835406
        ]
      }
    },
    {
      "type": "Feature",
      "properties": {
        "norad_id": 66571,
        "name": "STARLINK-35836",
        "group": "last-30-days",
        "lat": -40.12671345703414,
        "lon": -75.49416491108241,
        "alt_km": 469.2126511441338,
        "timestamp": "2025-12-26T16:33:54.328429+00:00",
        "meta_object_name": "STARLINK-35836",
        "meta_object_id": "2025-268Q",
        "meta_epoch": "2025-12-26T06:00:02.999808",
        "meta_mean_motion": 15.34912757,
        "meta_eccentricity": 0.00010284,
        "meta_inclination": 42.9998,
        "meta_ra_of_asc_node": 42.2589,
        "meta_arg_of_pericenter": 254.987,
        "meta_mean_anomaly": 82.2848,
        "meta_ephemeris_type": 0,
        "meta_classification_type": "U",
        "meta_norad_cat_id": 66571,
        "meta_element_set_no": 999,
        "meta_rev_at_epoch": 601,
        "meta_bstar": -0.062866479,
        "meta_mean_motion_dot": -0.01940463,
        "meta_mean_motion_ddot": 0,
        "tle_line1": "1 66571U 25268Q   25360.25003472 -.01940463  00000+0 -62866-1 0  9994",
        "tle_line2": "2 66571  42.9998  42.2589 0001028 254.9870  82.2848 15.34912757  6017"
      },
      "geometry": {
        "type": "Point",
        "coordinates": [
          -75.49416491108241,
          -40.12671345703414
        ]
      }
    },
    {
      "type": "Feature",
      "properties": {
        "norad_id": 66572,
        "name": "STARLINK-35870",
        "group": "last-30-days",
        "lat": -42.295344265521415,
        "lon": -37.82332751510603,
        "alt_km": 464.9512221448349,
        "timestamp": "2025-12-26T16:33:54.328439+00:00",
        "meta_object_name": "STARLINK-35870",
        "meta_object_id": "2025-268R",
        "meta_epoch": "2025-12-26T06:00:02.999808",
        "meta_mean_motion": 15.36397762,
        "meta_eccentricity": 0.00014029,
        "meta_inclination": 43.0001,
        "meta_ra_of_asc_node": 42.1962,
        "meta_arg_of_pericenter": 258.6969,
        "meta_mean_anomaly": 104.5631,
        "meta_ephemeris_type": 0,
        "meta_classification_type": "U",
        "meta_norad_cat_id": 66572,
        "meta_element_set_no": 999,
        "meta_rev_at_epoch": 606,
        "meta_bstar": -0.062847087,
        "meta_mean_motion_dot": -0.02025041,
        "meta_mean_motion_ddot": 0,
        "tle_line1": "1 66572U 25268R   25360.25003472 -.02025041  00000+0 -62847-1 0  9991",
        "tle_line2": "2 66572  43.0001  42.1962 0001402 258.6969 104.5631 15.36397762  6063"
      },
      "geometry": {
        "type": "Point",
        "coordinates": [
          -37.82332751510603,
          -42.295344265521415
        ]
      }
    },
    {
      "type": "Feature",
      "properties": {
        "norad_id": 66573,
        "name": "STARLINK-35650",
        "group": "last-30-days",
        "lat": -37.950458370834696,
        "lon": -17.174391835509294,
        "alt_km": 462.37453497802653,
        "timestamp": "2025-12-26T16:33:54.328448+00:00",
        "meta_object_name": "STARLINK-35650",
        "meta_object_id": "2025-268S",
        "meta_epoch": "2025-12-26T06:00:02.999808",
        "meta_mean_motion": 15.37232411,
        "meta_eccentricity": 0.00014473,
        "meta_inclination": 43.0012,
        "meta_ra_of_asc_node": 42.1587,
        "meta_arg_of_pericenter": 258.8336,
        "meta_mean_anomaly": 119.4691,
        "meta_ephemeris_type": 0,
        "meta_classification_type": "U",
        "meta_norad_cat_id": 66573,
        "meta_element_set_no": 999,
        "meta_rev_at_epoch": 606,
        "meta_bstar": -0.060741509,
        "meta_mean_motion_dot": -0.02012829,
        "meta_mean_motion_ddot": 0,
        "tle_line1": "1 66573U 25268S   25360.25003472 -.02012829  00000+0 -60742-1 0  9994",
        "tle_line2": "2 66573  43.0012  42.1587 0001447 258.8336 119.4691 15.37232411  6069"
      },
      "geometry": {
        "type": "Point",
        "coordinates": [
          -17.174391835509294,
          -37.950458370834696
        ]
      }
    },
    {
      "type": "Feature",
      "properties": {
        "norad_id": 66574,
        "name": "STARLINK-35812",
        "group": "last-30-days",
        "lat": -30.785495327746506,
        "lon": -0.14279746411594665,
        "alt_km": 459.73534648656914,
        "timestamp": "2025-12-26T16:33:54.328458+00:00",
        "meta_object_name": "STARLINK-35812",
        "meta_object_id": "2025-268T",
        "meta_epoch": "2025-12-26T06:00:02.999808",
        "meta_mean_motion": 15.38092493,
        "meta_eccentricity": 0.00013654,
        "meta_inclination": 43.0004,
        "meta_ra_of_asc_node": 42.1226,
        "meta_arg_of_pericenter": 269.26,
        "meta_mean_anomaly": 123.5274,
        "meta_ephemeris_type": 0,
        "meta_classification_type": "U",
        "meta_norad_cat_id": 66574,
        "meta_element_set_no": 999,
        "meta_rev_at_epoch": 606,
        "meta_bstar": -0.061358908,
        "meta_mean_motion_dot": -0.02118726,
        "meta_mean_motion_ddot": 0,
        "tle_line1": "1 66574U 25268T   25360.25003472 -.02118726  00000+0 -61359-1 0  9993",
        "tle_line2": "2 66574  43.0004  42.1226 0001365 269.2600 123.5274 15.38092493  6068"
      },
      "geometry": {
        "type": "Point",
        "coordinates": [
          -0.14279746411594665,
          -30.785495327746506
        ]
      }
    }
  ]
}